NORAD_CAT_ID,OBJECT_NAME,OBJECT_TYPE,EPOCH,MEAN_MOTION,ECCENTRICITY,INCLINATION,RA_OF_ASC_NODE,ARG_OF_PERICENTER,MEAN_ANOMALY,BSTAR,MEAN_MOTION_DOT,MEAN_MOTION_DDOT,TLE_LINE0,TLE_LINE1,TLE_LINE2,SEMIMAJOR_AXIS,PERIOD,APOGEE,PERIGEE,DECAYED
54078.0,STARLINK-5138,PAYLOAD,2024-03-27 12:46:27,15.0883879,0.0001305,53.2148,281.0725,102.8284,257.2854,0.00062348,9.648e-05,0.0,0 STARLINK-5138,1 54078U 22136AD  24087.53225877  .00009648  00000-0  62348-3 0  9991,2 54078  53.2148 281.0725 0001305 102.8284 257.2854 15.08838790 79613,6917.884,95.438,540.652,538.846,0.0
54078.0,STARLINK-5138,PAYLOAD,2024-03-27 19:07:59,15.08850834,0.0001269,53.2144,279.8837,98.9116,261.202,0.0007533,0.00011725,0.0,0 STARLINK-5138,1 54078U 22136AD  24087.79721574  .00011725  00000-0  75330-3 0  9998,2 54078  53.2144 279.8837 0001269  98.9116 261.2020 15.08850834 80138,6917.847,95.437,540.59,538.834,0.0
54078.0,STARLINK-5138,PAYLOAD,2024-03-28 12:37:13,15.08867085,0.0001127,53.2147,276.6138,89.5218,270.5903,0.00076161,0.00011863,0.0,0 STARLINK-5138,1 54078U 22136AD  24088.52584650  .00011863  00000-0  76161-3 0  9998,2 54078  53.2147 276.6138 0001127  89.5218 270.5903 15.08867085 79768,6917.798,95.436,540.442,538.883,0.0
54078.0,STARLINK-5138,PAYLOAD,2024-03-28 22:09:30,15.08897729,0.0001481,53.2172,274.8283,94.1825,265.9336,0.0015113,0.00023884,0.0,0 STARLINK-5138,1 54078U 22136AD  24088.92327296  .00023884  00000-0  15113-2 0  9998,2 54078  53.2172 274.8283 0001481  94.1825 265.9336 15.08897729 79829,6917.704,95.434,540.593,538.544,0.0
54078.0,STARLINK-5138,PAYLOAD,2024-03-29 12:27:59,15.08845675,0.0003651,53.2146,272.1505,93.2146,266.9264,0.0011031,0.00017315,0.0,0 STARLINK-5138,1 54078U 22136AD  24089.51944231  .00017315  00000-0  11031-2 0  9995,2 54078  53.2146 272.1505 0003651  93.2146 266.9264 15.08845675 80393,6917.863,95.437,542.254,537.202,0.0
54078.0,STARLINK-5138,PAYLOAD,2024-03-29 18:49:32,15.08813261,4.63e-05,53.2187,270.9628,278.1951,81.8989,0.0008908,0.00013907,0.0,0 STARLINK-5138,1 54078U 22136AD  24089.78440641  .00013907  00000-0  89080-3 0  9993,2 54078  53.2187 270.9628 0000463 278.1951  81.8989 15.08813261 80435,6917.962,95.439,540.147,539.507,0.0
54078.0,STARLINK-5138,PAYLOAD,2024-03-29 22:00:18,15.08825646,0.0001563,53.2182,270.3672,103.463,256.6537,-0.00017324,-3.043e-05,0.0,0 STARLINK-5138,1 54078U 22136AD  24089.91688578 -.00003043  00000-0 -17324-3 0  9995,2 54078  53.2182 270.3672 0001563 103.4630 256.6537 15.08825646 79977,6917.924,95.438,540.871,538.708,0.0
54078.0,STARLINK-5138,PAYLOAD,2024-03-30 12:18:47,15.08824494,0.0001601,53.2186,267.691,103.0238,257.0933,0.00011476,1.538e-05,0.0,0 STARLINK-5138,1 54078U 22136AD  24090.51305464  .00001538  00000-0  11476-3 0  9990,2 54078  53.2186 267.6910 0001601 103.0238 257.0933 15.08824494 80065,6917.928,95.439,540.9,538.685,0.0
54078.0,STARLINK-5138,PAYLOAD,2024-03-30 18:40:20,15.08833425,0.0001582,53.215,266.5037,102.1277,257.9893,0.00017378,2.478e-05,0.0,0 STARLINK-5138,1 54078U 22136AD  24090.77801391  .00002478  00000-0  17378-3 0  9999,2 54078  53.2150 266.5037 0001582 102.1277 257.9893 15.08833425 80108,6917.9,95.438,540.86,538.671,0.0
54078.0,STARLINK-5138,PAYLOAD,2024-03-31 12:09:35,15.08834591,0.00016,53.2137,263.2326,105.7435,254.3733,0.00037522,5.688e-05,0.0,0 STARLINK-5138,1 54078U 22136AD  24091.50665970  .00005688  00000-0  37522-3 0  9991,2 54078  53.2137 263.2326 0001600 105.7435 254.3733 15.08834591 80697,6917.897,95.438,540.869,538.655,0.0
54078.0,STARLINK-5138,PAYLOAD,2024-03-31 18:31:07,15.08846094,0.0001357,53.2166,262.0438,102.6485,257.4659,0.00053855,8.295e-05,0.0,0 STARLINK-5138,1 54078U 22136AD  24091.77161764  .00008295  00000-0  53855-3 0  9996,2 54078  53.2166 262.0438 0001357 102.6485 257.4659 15.08846094 80254,6917.862,95.437,540.666,538.788,0.0
54078.0,STARLINK-5138,PAYLOAD,2024-04-01 04:03:25,15.08878378,0.0001643,53.2178,260.2578,100.595,259.5227,0.0010322,0.00016195,0.0,0 STARLINK-5138,1 54078U 22136AD  24092.16904180  .00016195  00000-0  10322-2 0  9996,2 54078  53.2178 260.2578 0001643 100.5950 259.5227 15.08878378 80797,6917.763,95.435,540.765,538.491,0.0
54078.0,STARLINK-5138,PAYLOAD,2024-04-01 12:00:19,15.08893314,0.0001497,53.2167,258.773,105.1525,254.9632,0.0010309,0.00016181,0.0,0 STARLINK-5138,1 54078U 22136AD  24092.50022997  .00016181  00000-0  10309-2 0  9991,2 54078  53.2167 258.7730 0001497 105.1525 254.9632 15.08893314 80362,6917.717,95.434,540.618,538.547,0.0
54078.0,STARLINK-5138,PAYLOAD,2024-04-01 19:57:15,15.08851414,0.0001627,53.2156,257.2856,68.7122,291.4043,-0.00039712,-6.605e-05,0.0,0 STARLINK-5138,1 54078U 22136AD  24092.83143472 -.00006605  00000-0 -39712-3 0  9991,2 54078  53.2156 257.2856 0001627  68.7122 291.4043 15.08851414 80890,6917.846,95.437,540.836,538.585,0.0
54078.0,STARLINK-5138,PAYLOAD,2024-04-02 03:54:12,15.08829349,0.0001473,53.2159,255.7971,84.6394,275.4766,-0.00089513,-0.00014501,0.0,0 STARLINK-5138,1 54078U 22136AD  24093.16264004 -.00014501  00000-0 -89513-3 0  9991,2 54078  53.2159 255.7971 0001473  84.6394 275.4766 15.08829349 80943,6917.913,95.438,540.797,538.759,0.0
54078.0,STARLINK-5138,PAYLOAD,2024-04-02 10:15:45,15.08824226,0.0001589,53.2146,254.6078,81.2632,278.854,-0.00063029,-0.00010301,0.0,0 STARLINK-5138,1 54078U 22136AD  24093.42760739 -.00010301  00000-0 -63029-3 0  9994,2 54078  53.2146 254.6078 0001589  81.2632 278.8540 15.08824226 80509,6917.929,95.439,540.893,538.694,0.0
54078.0,STARLINK-5138,PAYLOAD,2024-04-02 19:48:04,15.0881913,0.0001516,53.2166,252.8242,82.0486,278.0678,-0.00045129,-7.459e-05,0.0,0 STARLINK-5138,1 54078U 22136AD  24093.82505606 -.00007459  00000-0 -45129-3 0  9999,2 54078  53.2166 252.8242 0001516  82.0486 278.0678 15.08819130 80568,6917.944,95.439,540.858,538.76,0.0
54078.0,STARLINK-5138,PAYLOAD,2024-04-03 16:28:05,15.0883983,0.000157,53.2168,248.9585,84.882,275.2352,-5.6954e-05,-1.194e-05,0.0,0 STARLINK-5138,1 54078U 22136AD  24094.68617603 -.00001194  00000-0 -56954-4 0  9994,2 54078  53.2168 248.9585 0001570  84.8820 275.2352 15.08839830 81173,6917.881,95.438,540.832,538.66,0.0
54078.0,STARLINK-5138,PAYLOAD,2024-04-04 03:35:48,15.08833768,0.0001402,53.2164,246.8778,80.9289,279.1862,0.00042107,6.419e-05,0.0,0 STARLINK-5138,1 54078U 22136AD  24095.14986589  .00006419  00000-0  42107-3 0  9995,2 54078  53.2164 246.8778 0001402  80.9289 279.1862 15.08833768 81241,6917.899,95.438,540.734,538.795,0.0
54078.0,STARLINK-5138,PAYLOAD,2024-04-04 14:43:30,15.08845366,0.0001337,53.2159,244.7962,79.65,280.4643,0.00060319,9.326e-05,0.0,0 STARLINK-5138,1 54078U 22136AD  24095.61354624  .00009326  00000-0  60319-3 0  9991,2 54078  53.2159 244.7962 0001337  79.6500 280.4643 15.08845366 80838,6917.864,95.437,540.654,538.804,0.0
54078.0,STARLINK-5138,PAYLOAD,2024-04-04 16:18:53,15.08851615,0.0001309,53.2159,244.498,83.4619,276.6522,0.00066017,0.00010238,0.0,0 STARLINK-5138,1 54078U 22136AD  24095.67978415  .00010238  00000-0  66017-3 0  9992,2 54078  53.2159 244.4980 0001309  83.4619 276.6522 15.08851615 80846,6917.845,95.437,540.615,538.804,0.0
54078.0,STARLINK-5138,PAYLOAD,2024-04-05 12:58:53,15.08848992,0.0001395,53.2163,240.6319,85.2193,274.8958,0.00017201,2.451e-05,0.0,0 STARLINK-5138,1 54078U 22136AD  24096.54089971  .00002451  00000-0  17201-3 0  9998,2 54078  53.2163 240.6319 0001395  85.2193 274.8958 15.08848992 81452,6917.853,95.437,540.683,538.753,0.0
54078.0,STARLINK-5138,PAYLOAD,2024-04-05 14:34:16,15.08848477,0.0001378,53.2165,240.3346,85.6082,274.5067,0.00019036,2.744e-05,0.0,0 STARLINK-5138,1 54078U 22136AD  24096.60714000  .00002744  00000-0  19036-3 0  9996,2 54078  53.2165 240.3346 0001378  85.6082 274.5067 15.08848477 80986,6917.854,95.437,540.673,538.766,0.0
54078.0,STARLINK-5138,PAYLOAD,2024-04-05 19:20:26,15.08852878,0.0001423,53.2165,239.4416,89.0516,271.0639,0.00024283,3.58e-05,0.0,0 STARLINK-5138,1 54078U 22136AD  24096.80585682  .00003580  00000-0  24283-3 0  9999,2 54078  53.2165 239.4416 0001423  89.0516 271.0639 15.08852878 81016,6917.841,95.437,540.69,538.722,0.0
54078.0,STARLINK-5138,PAYLOAD,2024-04-06 16:00:27,15.08843867,0.0001929,53.2158,235.5748,92.7385,267.3828,4.0195e-05,3.52e-06,0.0,0 STARLINK-5138,1 54078U 22136AD  24097.66697985  .00000352  00000-0  40195-4 0  9999,2 54078  53.2158 235.5748 0001929  92.7385 267.3828 15.08843867 81622,6917.869,95.437,541.068,538.399,0.0
54078.0,STARLINK-5138,PAYLOAD,2024-04-07 09:29:41,15.08834333,0.00016,53.2139,232.3022,91.0211,269.0965,-4.1398e-05,-9.47e-06,0.0,0 STARLINK-5138,1 54078U 22136AD  24098.39562479 -.00000947  00000-0 -41398-4 0  9997,2 54078  53.2139 232.3022 0001600  91.0211 269.0965 15.08834333 81738,6917.898,95.438,540.87,538.656,0.0
54078.0,STARLINK-5138,PAYLOAD,2024-04-07 15:51:14,15.08837275,8.13e-05,53.2172,231.1186,73.2318,286.8763,5.4211e-05,5.75e-06,0.0,0 STARLINK-5138,1 54078U 22136AD  24098.66058546  .00000575  00000-0  54211-4 0  9995,2 54078  53.2172 231.1186 0000813  73.2318 286.8763 15.08837275 81290,6917.889,95.438,540.316,539.191,0.0
54078.0,STARLINK-5138,PAYLOAD,2024-04-08 01:23:33,15.08838996,9.7e-05,53.2144,229.3344,96.5352,263.575,2.8782e-05,1.7e-06,0.0,0 STARLINK-5138,1 54078U 22136AD  24099.05802490  .00000170  00000-0  28782-4 0  9999,2 54078  53.2144 229.3344 0000970  96.5352 263.5750 15.08838996 81350,6917.883,95.438,540.419,539.077,0.0
54078.0,STARLINK-5138,PAYLOAD,2024-04-08 15:42:02,15.08831455,0.0001316,53.2152,226.6587,92.7602,267.354,9.8224e-05,1.275e-05,0.0,0 STARLINK-5138,1 54078U 22136AD  24099.65419363  .00001275  00000-0  98224-4 0  9993,2 54078  53.2152 226.6587 0001316  92.7602 267.3540 15.08831455 81924,6917.907,95.438,540.682,538.861,0.0
54078.0,STARLINK-5138,PAYLOAD,2024-04-09 07:35:53,15.08839534,0.000146,53.2146,223.6823,80.0935,280.0222,0.00014505,2.021e-05,0.0,0 STARLINK-5138,1 54078U 22136AD  24100.31659186  .00002021  00000-0  14505-3 0  9997,2 54078  53.2146 223.6823 0001460  80.0935 280.0222 15.08839534 81549,6917.882,95.438,540.757,538.737,0.0
